ONEWEB-0389             
1 50469U 21132A   25202.57263280  .00000046  00000+0  86081-4 0  9993
2 50469  87.9050  71.6789 0001402  90.4861 269.6432 13.17649155174543
ONEWEB-0390             
1 50470U 21132B   25202.34650822  .00000078  00000+0  16742-3 0  9993
2 50470  87.9047  71.7315 0001686  72.9675 287.1641 13.17648751174514
ONEWEB-0391             
1 50471U 21132C   25202.34819547  .00000083  00000+0  18046-3 0  9990
2 50471  87.9047  71.7457 0000902  88.4630 271.6605 13.17649712174511
ONEWEB-0392             
1 50472U 21132D   25202.37857050  .00000038  00000+0  63571-4 0  9999
2 50472  87.9043  71.6839 0001401  87.8524 272.2768 13.17649080174550
ONEWEB-0393             
1 50473U 21132E   25202.65545587 -.00000003  00000+0 -41777-4 0  9998
2 50473  87.9053  71.6463 0001603  83.5440 276.5874 13.17649400175876
ONEWEB-0394             
1 50474U 21132F   25202.50391619  .00000046  00000+0  83962-4 0  9995
2 50474  87.9121  41.1325 0001706  92.3920 267.7408 13.18687104178015
ONEWEB-0395             
1 50475U 21132G   25202.72571162 -.00000200  00000+0 -59982-3 0  9991
2 50475  87.8820  86.9528 0001532  74.1636 285.9661 13.11419000173673
ONEWEB-0396             
1 50476U 21132H   25202.57318963  .00000113  00000+0  25496-3 0  9997
2 50476  87.9120  41.1311 0001726  90.3045 269.8285 13.18688406178066
ONEWEB-0397             
1 50477U 21132J   25202.51215838  .00000053  00000+0  10136-3 0  9997
2 50477  87.9120  41.1445 0001885  93.4128 266.7220 13.18685193178039
ONEWEB-0398             
1 50478U 21132K   25202.61720411 -.00000273  00000+0 -80534-3 0  9992
2 50478  87.8812  86.9377 0001729  64.3609 295.7698 13.11414263172289
ONEWEB-0399             
1 50479U 21132L   25202.60364993  .00000261  00000+0  70042-3 0  9999
2 50479  87.8816  86.9644 0001722  89.2001 270.9324 13.11414306172274
ONEWEB-0400             
1 50480U 21132M   25202.56660484  .00000061  00000+0  12132-3 0  9994
2 50480  87.9121  41.1241 0001722  80.5342 279.5985 13.18683917178035
ONEWEB-0401             
1 50481U 21132N   25202.53526522  .00000053  00000+0  10151-3 0  9996
2 50481  87.9121  41.1259 0001998  91.6350 268.5011 13.18686399178037
ONEWEB-0402             
1 50482U 21132P   25202.80248212  .00000074  00000+0  15499-3 0  9997
2 50482  87.9121  41.0663 0002306  97.4586 262.6808 13.18685756179378
ONEWEB-0403             
1 50483U 21132Q   25202.82723454  .00000031  00000+0  45397-4 0  9990
2 50483  87.9122  41.0798 0001694  88.2866 271.8460 13.18686267179337
ONEWEB-0404             
1 50484U 21132R   25202.43241261  .00000490  00000+0  13454-2 0  9995
2 50484  87.8823  87.0022 0001442  82.7548 277.3744 13.11417468172340
ONEWEB-0405             
1 50485U 21132S   25202.84206322  .00000094  00000+0  20513-3 0  9995
2 50485  87.9119  41.0636 0002004  95.6859 264.4501 13.18687038179742
ONEWEB-0406             
1 50486U 21132T   25202.83217230  .00001022  00000+0  25577-2 0  9991
2 50486  87.9123  41.0878 0001306  83.8481 276.2800 13.18694129179371
ONEWEB-0407             
1 50487U 21132U   25202.59794320  .00000029  00000+0  41032-4 0  9997
2 50487  87.9121  41.1198 0001817  91.9246 268.2095 13.18684310177996
ONEWEB-0409             
1 50488U 21132V   25202.73590962  .00000361  00000+0  98196-3 0  9991
2 50488  87.8816  86.9035 0001490  74.0115 286.1177 13.11418539173557
ONEWEB-0412             
1 50489U 21132W   25202.51052055  .00000057  00000+0  11125-3 0  9993
2 50489  87.9119  41.1507 0002089  94.9851 265.1519 13.18686941178075
ONEWEB-0413             
1 50490U 21132X   25202.51547773  .00000068  00000+0  14007-3 0  9995
2 50490  87.9123  41.1647 0002178  90.9748 269.1633 13.18686818178015
ONEWEB-0414             
1 50491U 21132Y   25202.80412228  .00000083  00000+0  17701-3 0  9995
2 50491  87.9120  41.0680 0001864  95.1106 265.0239 13.18687016179373
ONEWEB-0417             
1 50492U 21132Z   25202.50885999  .00000048  00000+0  89186-4 0  9990
2 50492  87.9122  41.1578 0001640  89.3802 270.7518 13.18685004178022
ONEWEB-0418             
1 50493U 21132AA  25202.59449830  .00000097  00000+0  21343-3 0  9994
2 50493  87.9121  41.1272 0001465  93.1975 266.9324 13.18685722178098
ONEWEB-0419             
1 50494U 21132AB  25202.61279320  .00000051  00000+0  97464-4 0  9991
2 50494  87.9118  41.1264 0001533  80.6359 279.4947 13.18686214178018
ONEWEB-0420             
1 50495U 21132AC  25202.80577496  .00000058  00000+0  11541-3 0  9996
2 50495  87.9120  41.0973 0002149  83.9255 276.2122 13.18687503179331
ONEWEB-0421             
1 50496U 21132AD  25202.57154500  .00000062  00000+0  12571-3 0  9997
2 50496  87.9120  41.1370 0001915  96.9235 263.2115 13.18686236178043
ONEWEB-0424             
1 50497U 21132AE  25202.60783365  .00000060  00000+0  11976-3 0  9995
2 50497  87.9122  41.1237 0001616  74.5922 285.5388 13.18685963178079
ONEWEB-0426             
1 50498U 21132AF  25202.56823733  .00000084  00000+0  18125-3 0  9994
2 50498  87.9116  41.1257 0001667 112.0066 248.1243 13.18685882178017
ONEWEB-0427             
1 50499U 21132AG  25202.83381267  .00000139  00000+0  31881-3 0  9991
2 50499  87.9120  41.0619 0001596  88.9700 271.1615 13.18685511179379
ONEWEB-0429             
1 50500U 21132AH  25202.59298923  .00000133  00000+0  30458-3 0  9996
2 50500  87.9122  41.1385 0001937  85.1937 274.9416 13.18685146178019
ONEWEB-0430             
1 50501U 21132AJ  25202.50557557  .00000031  00000+0  45777-4 0  9997
2 50501  87.9123  41.1498 0001845  78.1685 281.9654 13.18687638178049
ONEWEB-0432             
1 50502U 21132AK  25202.61302904  .00000012  00000+0 -22408-5 0  9991
2 50502  87.9114  41.1113 0001001  68.1815 291.9423 13.18687157178010
ONEWEB-0440             
1 50503U 21132AL  25202.60124610  .00000049  00000+0  90932-4 0  9992
2 50503  87.9124  41.1197 0002160  93.5801 266.5578 13.18685314178009
ONEWEB-0450             
1 50504U 21132AM  25202.59478532  .00000038  00000+0  64325-4 0  9991
2 50504  87.9122  41.1476 0002028  81.4519 278.6843 13.18684569178036
ONEWEB-0410             
1 51622U 22012A   25202.66714182 -.00000694  00000+0 -18219-2 0  9992
2 51622  87.9048  71.6295 0001005 133.6444 226.4771 13.17640919171464
ONEWEB-0411             
1 51623U 22012B   25202.46138616  .00000015  00000+0  57402-5 0  9998
2 51623  87.8819 102.2300 0002051  59.5246 300.6083 13.10376466165972
ONEWEB-0415             
1 51624U 22012C   25202.68713066 -.00000201  00000+0 -61250-3 0  9994
2 51624  87.8817 102.1885 0001902  66.5486 293.5841 13.10376002167280
ONEWEB-0416             
1 51625U 22012D   25202.77512255  .00000332  00000+0  91446-3 0  9995
2 51625  87.8819 102.1891 0001812  74.7457 285.3871 13.10375907167341
ONEWEB-0422             
1 51626U 22012E   25202.60131967 -.00000012  00000+0 -64856-4 0  9998
2 51626  87.9048  71.6493 0002539  82.4314 277.7106 13.17649242170275
ONEWEB-0423             
1 51627U 22012F   25202.59456859  .00000030  00000+0  43693-4 0  9991
2 51627  87.9050  71.6588 0001853  83.4385 276.6957 13.17649603170162
ONEWEB-0425             
1 51628U 22012G   25202.78508769  .00000697  00000+0  19614-2 0  9994
2 51628  87.8814 102.1569 0001649  85.2674 274.8642 13.10374028167349
ONEWEB-0428             
1 51629U 22012H   25202.45972471 -.00000097  00000+0 -31361-3 0  9994
2 51629  87.8818 102.2436 0002042  74.4500 285.6852 13.10376467165973
ONEWEB-0431             
1 51630U 22012J   25202.42970405 -.00000331  00000+0 -98560-3 0  9993
2 51630  87.8807 102.2200 0002262  64.9814 295.1548 13.10370507166022
ONEWEB-0434             
1 51631U 22012K   25202.71204781  .00000645  00000+0  18112-2 0  9993
2 51631  87.8818 102.2059 0001575  96.4771 263.6535 13.10373169167333
ONEWEB-0435             
1 51632U 22012L   25202.41491262  .00000409  00000+0  11348-2 0  9995
2 51632  87.8816 102.2579 0002292  77.8089 282.3295 13.10370534165995
ONEWEB-0436             
1 51633U 22012M   25202.35831661 -.00000039  00000+0 -13366-3 0  9994
2 51633  87.9039  71.6922 0002010  78.3714 281.7643 13.17649945170116
ONEWEB-0438             
1 51634U 22012N   25202.78010468  .00000521  00000+0  14570-2 0  9997
2 51634  87.8817 102.1859 0001738  80.2128 279.9196 13.10374905167365
ONEWEB-0439             
1 51635U 22012P   25202.63070876  .00000609  00000+0  17069-2 0  9994
2 51635  87.8819 102.2038 0001891  77.8464 282.2875 13.10373824166036
ONEWEB-0442             
1 51636U 22012Q   25202.57853901  .00000037  00000+0  61688-4 0  9999
2 51636  87.9047  71.7008 0001152  88.0746 272.0517 13.17648714170131
ONEWEB-0443             
1 51637U 22012R   25202.59794467  .00000015  00000+0  53757-5 0  9998
2 51637  87.9039  71.7074 0001806  92.4795 267.6543 13.17649347170182
ONEWEB-0444             
1 51638U 22012S   25202.77346326  .00000263  00000+0  71781-3 0  9996
2 51638  87.8817 102.1767 0002013  79.4216 280.7138 13.10375892167353
ONEWEB-0445             
1 51639U 22012T   25202.71867557  .00000462  00000+0  12867-2 0  9995
2 51639  87.8807 102.1409 0001680  72.9179 287.2132 13.10372075167346
ONEWEB-0446             
1 51640U 22012U   25202.61908411  .00000284  00000+0  77610-3 0  9991
2 51640  87.8819 102.2220 0001763  69.5442 290.5875 13.10376083166039
ONEWEB-0448             
1 51641U 22012V   25202.24228258  .00001670  00000+0  47470-2 0  9995
2 51641  87.8818 102.2965 0002208  72.1908 287.9460 13.10369365165952
ONEWEB-0449             
1 51642U 22012W   25202.62905124  .00000603  00000+0  16919-2 0  9991
2 51642  87.8813 102.1923 0001617  90.9099 269.2214 13.10374513166012
ONEWEB-0451             
1 51643U 22012X   25202.35494664 -.00000031  00000+0 -11272-3 0  9999
2 51643  87.9044  71.6829 0001706  85.3809 274.7517 13.17651355170090
ONEWEB-0452             
1 51644U 22012Y   25202.35325824  .00000063  00000+0  12977-3 0  9997
2 51644  87.9042  71.7475 0001743  91.4382 268.6950 13.17651353170105
